FENGYUN 3D              
1 43010U 17072A   26176.18148113  .00000233  00000+0  13174-3 0  9990
2 43010  99.0128 150.7480 0002380  49.7802 310.3581 14.19741716446126
NOAA 20 (JPSS-1)        
1 43013U 17073A   26176.10726413  .00000032  00000+0  36252-4 0  9991
2 43013  98.7772 115.4995 0000552 131.6706 228.4517 14.19513092445594
GOES 17                 
1 43226U 18022A   26176.15080160 -.00000174  00000+0  00000+0 0  9994
2 43226   0.9573  85.5763 0000638  21.9915 130.4978  1.00272956 30503
SENTINEL-3B             
1 43437U 18039A   26176.18451976  .00000095  00000+0  57471-4 0  9996
2 43437  98.6245 243.6020 0000735 104.6006 255.5256 14.26736832425267
FENGYUN 2H              
1 43491U 18050A   26175.97036458 -.00000122  00000+0  00000+0 0  9992
2 43491   3.0521  78.9902 0001670 126.5778 136.2280  1.00269674 29513
METOP-C                 
1 43689U 18087A   26176.16259287  .00000082  00000+0  57236-4 0  9992
2 43689  98.6641 235.6203 0002007 119.4075 240.7303 14.21514066395964
GEO-KOMPSAT-2A          
1 43823U 18100A   26175.98007130 -.00000334  00000+0  00000+0 0  9998
2 43823   0.0439 164.2930 0002422 286.2289 303.6860  1.00270856 27701
METEOR-M2 2             
1 44387U 19038A   26176.18248303 -.00000056  00000+0 -42384-5 0  9996
2 44387  98.9147 163.5859 0001764  37.0599 323.0701 14.24367379362434
ARKTIKA-M 1             
1 47719U 21016A   26168.49069990 -.00000210  00000+0  00000+0 0  9999
2 47719  63.2922  57.5948 7288528 269.9420  14.6012  2.00622504 38796
FENGYUN 3E              
1 49008U 21062A   26176.23492581 -.00000326  00000+0 -13304-3 0  9994
2 49008  98.7497 179.5532 0002815  72.7088 287.4396 14.19903612257725
GOES 18                 
1 51850U 22021A   26176.14138903  .00000106  00000+0  00000+0 0  9992
2 51850   0.0033  94.5687 0000638  28.7695  63.8343  1.00272597  6679
NOAA 21 (JPSS-2)        
1 54234U 22150A   26176.13988589  .00000042  00000+0  40608-4 0  9998
2 54234  98.7062 114.7958 0002175 141.8648 218.2682 14.19537679187674
METEOSAT-12 (MTG-I1)    
1 54743U 22170C   26176.16840066  .00000002  00000+0  00000+0 0  9998
2 54743   0.7472  24.2757 0003589  71.3597 237.9498  1.00275022 13059
TIANMU-1 03             
1 55973U 23039A   26176.19827811  .00016646  00000+0  32567-3 0  9993
2 55973  97.5234 350.4824 0004000  80.0105 280.1596 15.47493137182078
TIANMU-1 04             
1 55974U 23039B   26176.18464943  .00017357  00000+0  33244-3 0  9999
2 55974  97.5171 349.6223 0004488  73.7622 286.4121 15.48098241182087
TIANMU-1 05             
1 55975U 23039C   26176.17943407  .00017128  00000+0  33593-3 0  9999
2 55975  97.5215 350.0749 0004027  95.3819 264.7890 15.47416974182058
TIANMU-1 06             
1 55976U 23039D   26176.18852853  .00017172  00000+0  33005-3 0  9992
2 55976  97.5224 350.7279 0004177  90.3683 269.8046 15.48000312182082
FENGYUN 3G              
1 56232U 23055A   26175.95737058  .00025497  00000+0  40721-3 0  9991
2 56232  49.9934 305.9761 0007240 328.8945  31.1592 15.52946171181216
METEOR-M2 3             
1 57166U 23091A   26176.17863422 -.00000018  00000+0  11059-4 0  9994
2 57166  98.6079 230.9934 0004743 135.7905 224.3654 14.24047335155655
TIANMU-1 07             
1 57399U 23101A   26176.14536547  .00006942  00000+0  24236-3 0  9997
2 57399  97.2594 226.6309 0004340 105.1648 255.0073 15.29890709162860
TIANMU-1 08             
1 57400U 23101B   26176.17739148  .00006611  00000+0  23085-3 0  9999
2 57400  97.2583 226.4315 0005710  96.0943 264.0949 15.29895358162861
TIANMU-1 09             
1 57401U 23101C   26176.22604456  .00007340  00000+0  25578-3 0  9998
2 57401  97.2541 225.8908 0004894 108.7739 251.4033 15.29929716162874
TIANMU-1 10             
1 57402U 23101D   26176.19383574  .00007210  00000+0  25144-3 0  9995
2 57402  97.2621 226.9179 0006428 105.8078 254.3872 15.29901860162867
FENGYUN 3F              
1 57490U 23111A   26176.14818850  .00000029  00000+0  34080-4 0  9999
2 57490  98.6834 246.0086 0001562  87.1875 272.9480 14.19940258149998
ARKTIKA-M 2             
1 58584U 23198A   26174.74078844  .00000167  00000+0  00000+0 0  9997
2 58584  63.2421 153.6337 6904949 267.3888  18.7567  2.00611379 18452
TIANMU-1 11             
1 58645U 23205A   26176.17906708  .00005922  00000+0  22557-3 0  9991
2 58645  97.3447 197.6103 0007975 348.5435  11.5621 15.27069598138742
TIANMU-1 12             
1 58646U 23205B   26176.21514368  .00006488  00000+0  24720-3 0  9996
2 58646  97.3437 197.4000 0005764 332.8468  27.2468 15.27037222138733
TIANMU-1 13             
1 58647U 23205C   26176.18256253  .00006140  00000+0  23515-3 0  9995
2 58647  97.3464 197.6417 0005149 306.6483  53.4282 15.26889076138726
TIANMU-1 14             
1 58648U 23205D   26176.16753487  .00005974  00000+0  22853-3 0  9993
2 58648  97.3400 196.8024 0006052 312.2379  47.8346 15.26933532138728
TIANMU-1 19             
1 58660U 23208A   26176.19216737  .00009028  00000+0  29758-3 0  9990
2 58660  97.4505 292.5333 0003439 289.7179  70.3691 15.31682130138554
TIANMU-1 20             
1 58661U 23208B   26176.15846834  .00008817  00000+0  28008-3 0  9996
2 58661  97.4448 293.1430 0005595 299.3200  60.7482 15.32871470138642
