OBJECT_NAME,OBJECT_ID,EPOCH,MEAN_MOTION,ECCENTRICITY,INCLINATION,RA_OF_ASC_NODE,ARG_OF_PERICENTER,MEAN_ANOMALY,EPHEMERIS_TYPE,CLASSIFICATION_TYPE,NORAD_CAT_ID,ELEMENT_SET_NO,REV_AT_EPOCH,BSTAR,MEAN_MOTION_DOT,MEAN_MOTION_DDOT
FENGYUN 3D,2017-072A,2026-06-25T04:21:19.969632,14.19741716,.000238,99.0128,150.7480,49.7802,310.3581,0,U,43010,999,44612,.13174E-3,.233E-5,0
NOAA 20 (JPSS-1),2017-073A,2026-06-25T02:34:27.620832,14.19513092,.0000552,98.7772,115.4995,131.6706,228.4517,0,U,43013,999,44559,.36252E-4,.32E-6,0
GOES 17,2018-022A,2026-06-25T03:37:09.258240,1.00272956,.0000638,0.9573,85.5763,21.9915,130.4978,0,U,43226,999,3050,0,-.174E-5,0
SENTINEL-3B,2018-039A,2026-06-25T04:25:42.507264,14.26736832,.0000735,98.6245,243.6020,104.6006,255.5256,0,U,43437,999,42526,.57471E-4,.95E-6,0
FENGYUN 2H,2018-050A,2026-06-24T23:17:19.499712,1.00269674,.000167,3.0521,78.9902,126.5778,136.2280,0,U,43491,999,2951,0,-.122E-5,0
METOP-C,2018-087A,2026-06-25T03:54:08.023968,14.21514066,.0002007,98.6641,235.6203,119.4075,240.7303,0,U,43689,999,39596,.57236E-4,.82E-6,0
GEO-KOMPSAT-2A,2018-100A,2026-06-24T23:31:18.160320,1.00270856,.0002422,0.0439,164.2930,286.2289,303.6860,0,U,43823,999,2770,0,-.334E-5,0
METEOR-M2 2,2019-038A,2026-06-25T04:22:46.533792,14.24367379,.0001764,98.9147,163.5859,37.0599,323.0701,0,U,44387,999,36243,-.42384E-5,-.56E-6,0
ARKTIKA-M 1,2021-016A,2026-06-17T11:46:36.471360,2.00622504,.72885287,63.2922,57.5948,269.9420,14.6012,0,U,47719,999,3879,0,-.21E-5,0
FENGYUN 3E,2021-062A,2026-06-25T05:38:17.589984,14.19903612,.0002815,98.7497,179.5532,72.7088,287.4396,0,U,49008,999,25772,-.13304E-3,-.326E-5,0
GOES 18,2022-021A,2026-06-25T03:23:36.012192,1.00272597,.0000638,0.0033,94.5687,28.7695,63.8343,0,U,51850,999,667,0,.106E-5,0
NOAA 21 (JPSS-2),2022-150A,2026-06-25T03:21:26.140896,14.19537679,.0002175,98.7062,114.7958,141.8648,218.2682,0,U,54234,999,18767,.40608E-4,.42E-6,0
METEOSAT-12 (MTG-I1),2022-170C,2026-06-25T04:02:29.817024,1.00275022,.0003589,0.7472,24.2757,71.3597,237.9498,0,U,54743,999,1305,0,.2E-7,0
TIANMU-1 03,2023-039A,2026-06-25T04:45:31.228704,15.47493137,.0004,97.5234,350.4824,80.0105,280.1596,0,U,55973,999,18207,.32567E-3,.16646E-3,0
TIANMU-1 04,2023-039B,2026-06-25T04:25:53.710752,15.48098241,.0004488,97.5171,349.6223,73.7622,286.4121,0,U,55974,999,18208,.33244E-3,.17357E-3,0
TIANMU-1 05,2023-039C,2026-06-25T04:18:23.103648,15.47416974,.0004027,97.5215,350.0749,95.3819,264.7890,0,U,55975,999,18205,.33593E-3,.17128E-3,0
TIANMU-1 06,2023-039D,2026-06-25T04:31:28.864992,15.48000312,.0004177,97.5224,350.7279,90.3683,269.8046,0,U,55976,999,18208,.33005E-3,.17172E-3,0
FENGYUN 3G,2023-055A,2026-06-24T22:58:36.818112,15.52946171,.000724,49.9934,305.9761,328.8945,31.1592,0,U,56232,999,18121,.40721E-3,.25497E-3,0
METEOR-M2 3,2023-091A,2026-06-25T04:17:13.996608,14.24047335,.0004743,98.6079,230.9934,135.7905,224.3654,0,U,57166,999,15565,.11059E-4,-.18E-6,0
TIANMU-1 07,2023-101A,2026-06-25T03:29:19.576608,15.29890709,.000434,97.2594,226.6309,105.1648,255.0073,0,U,57399,999,16286,.24236E-3,.6942E-4,0
TIANMU-1 08,2023-101B,2026-06-25T04:15:26.623872,15.29895358,.000571,97.2583,226.4315,96.0943,264.0949,0,U,57400,999,16286,.23085E-3,.6611E-4,0
TIANMU-1 09,2023-101C,2026-06-25T05:25:30.249984,15.29929716,.0004894,97.2541,225.8908,108.7739,251.4033,0,U,57401,999,16287,.25578E-3,.734E-4,0
TIANMU-1 10,2023-101D,2026-06-25T04:39:07.407936,15.29901860,.0006428,97.2621,226.9179,105.8078,254.3872,0,U,57402,999,16286,.25144E-3,.721E-4,0
FENGYUN 3F,2023-111A,2026-06-25T03:33:23.486400,14.19940258,.0001562,98.6834,246.0086,87.1875,272.9480,0,U,57490,999,14999,.3408E-4,.29E-6,0
ARKTIKA-M 2,2023-198A,2026-06-23T17:46:44.121216,2.00611379,.69049491,63.2421,153.6337,267.3888,18.7567,0,U,58584,999,1845,0,.167E-5,0
TIANMU-1 11,2023-205A,2026-06-25T04:17:51.395712,15.27069598,.0007975,97.3447,197.6103,348.5435,11.5621,0,U,58645,999,13874,.22557E-3,.5922E-4,0
TIANMU-1 12,2023-205B,2026-06-25T05:09:48.413952,15.27037222,.0005764,97.3437,197.4000,332.8468,27.2468,0,U,58646,999,13873,.2472E-3,.6488E-4,0
TIANMU-1 13,2023-205C,2026-06-25T04:22:53.402592,15.26889076,.0005149,97.3464,197.6417,306.6483,53.4282,0,U,58647,999,13872,.23515E-3,.614E-4,0
TIANMU-1 14,2023-205D,2026-06-25T04:01:15.012768,15.26933532,.0006052,97.3400,196.8024,312.2379,47.8346,0,U,58648,999,13872,.22853E-3,.5974E-4,0
TIANMU-1 19,2023-208A,2026-06-25T04:36:43.260768,15.31682130,.0003439,97.4505,292.5333,289.7179,70.3691,0,U,58660,999,13855,.29758E-3,.9028E-4,0
TIANMU-1 20,2023-208B,2026-06-25T03:48:11.664576,15.32871470,.0005595,97.4448,293.1430,299.3200,60.7482,0,U,58661,999,13864,.28008E-3,.8817E-4,0
